     3.02           N: GNSS NAV DATA    G: GPS              RINEX VERSION / TYPE
Spider v7.5.1.8670  SMO                 20210717 111210 UTC PGM / RUN BY / DATE
GPSA   4.6566D-09  1.4901D-08 -5.9605D-08 -1.1921D-07       IONOSPHERIC CORR
GPSB   7.9872D+04  8.1920D+04 -6.5536D+04 -4.5875D+05       IONOSPHERIC CORR
GPUT -1.8626451492D-09-8.881784197D-16 503808 2166          TIME SYSTEM CORR
    18    18  1929     7                                    LEAP SECONDS
                                                            END OF HEADER
G15 2021 07 14 14 00 00-1.355907879770D-04 2.614797267597D-12 0.000000000000D+00
     1.010000000000D+02-5.450000000000D+01 4.900561290100D-09 1.967492065576D+00
    -3.023073077202D-06 1.333190361038D-02 1.078471541405D-05 5.153653532028D+03
     3.096000000000D+05-1.303851604462D-07-2.347705286297D+00-2.738088369370D-07
     9.292291046592D-01 1.579375000000D+02 9.981247049518D-01-8.175340404648D-09
     1.042900557580D-10 1.000000000000D+00 2.166000000000D+03 0.000000000000D+00
     2.000000000000D+00 0.000000000000D+00-1.071020960808D-08 1.010000000000D+02
     3.023400000000D+05                   
G29 2021 07 14 14 00 00-3.800331614912D-04-6.139089236967D-12 0.000000000000D+00
     2.400000000000D+01 7.240625000000D+01 4.016952992458D-09 2.946055507723D+00
     3.807246685028D-06 1.978841959499D-03 9.896233677864D-06 5.153612827301D+03
     3.096000000000D+05 5.401670932770D-08 9.847408200078D-01 9.313225746155D-08
     9.836969986999D-01 2.025312500000D+02 2.227301316200D+00-7.741037144626D-09
     3.035840676069D-11 1.000000000000D+00 2.166000000000D+03 0.000000000000D+00
     2.000000000000D+00 0.000000000000D+00-9.778887033463D-09 2.400000000000D+01
     3.023400000000D+05                   
G12 2021 07 14 14 00 00-6.851274520159D-05-5.229594535194D-12 0.000000000000D+00
     4.500000000000D+01-1.028125000000D+01 4.504830286578D-09-7.174279758235D-01
    -3.818422555923D-07 8.298579603434D-03 7.970258593559D-06 5.153708993912D+03
     3.096000000000D+05-9.499490261078D-08-6.380144451197D-02 1.173466444016D-07
     9.732777187065D-01 2.395937500000D+02 1.228206844316D+00-8.102480464345D-09
    -3.196561626506D-10 1.000000000000D+00 2.166000000000D+03 0.000000000000D+00
     2.000000000000D+00 0.000000000000D+00-1.257285475731D-08 4.500000000000D+01
     3.023400000000D+05                   
G25 2021 07 14 14 00 00 1.733447425067D-04 6.707523425575D-12 0.000000000000D+00
     9.800000000000D+01-1.487500000000D+01 4.821272270306D-09-9.349747929502D-01
    -5.196779966354D-07 9.829212445766D-03 7.243826985359D-06 5.153598461151D+03
     3.096000000000D+05 4.284083843231D-08-1.378441231096D-01 2.067536115646D-07
     9.606051308652D-01 2.420625000000D+02 9.716290085682D-01-8.238557391849D-09
    -3.225134326268D-10 1.000000000000D+00 2.166000000000D+03 0.000000000000D+00
     2.000000000000D+00 0.000000000000D+00 5.587935447693D-09 9.800000000000D+01
     3.023400000000D+05                   
G23 2021 07 14 14 00 00 8.472288027406D-05-5.115907697473D-12 0.000000000000D+00
     9.000000000000D+01-9.146875000000D+01 4.546617748957D-09 2.540490911472D-01
    -4.980713129044D-06 1.389148179442D-03 5.517154932022D-06 5.153659971237D+03
     3.096000000000D+05 1.490116119385D-08 2.980117322786D+00-1.303851604462D-08
     9.651330012977D-01 2.787187500000D+02 2.615044173349D+00-8.246415106328D-09
    -3.853732055692D-10 1.000000000000D+00 2.166000000000D+03 0.000000000000D+00
     2.000000000000D+00 0.000000000000D+00-8.381903171539D-09 8.580000000000D+02
     3.023400000000D+05                   
G31 2021 07 14 14 00 00-1.285839825869D-04-2.160049916711D-12 0.000000000000D+00
     7.300000000000D+01 3.296875000000D+01 4.899846750561D-09-4.809220388247D-01
     1.925975084305D-06 1.004687219393D-02 6.431713700294D-06 5.153561990738D+03
     3.096000000000D+05 2.086162567139D-07-1.157436119517D+00 5.587935447693D-08
     9.554340533891D-01 2.478125000000D+02 2.694020565113D-01-8.372849080729D-09
     3.839445705811D-10 1.000000000000D+00 2.166000000000D+03 0.000000000000D+00
     2.000000000000D+00 0.000000000000D+00-1.303851604462D-08 7.300000000000D+01
     3.023400000000D+05                   
G18 2021 07 14 15 59 44 3.409977070987D-04-2.614797267597D-12 0.000000000000D+00
     7.700000000000D+01 5.156250000000D+01 4.696981470431D-09 2.029199395523D+00
     2.818182110786D-06 1.659842790104D-03 3.837049007416D-06 5.153657205582D+03
     3.167840000000D+05 9.872019290924D-08 1.980489789886D+00 1.043081283569D-07
     9.684126339533D-01 3.100000000000D+02 2.887894623283D+00-8.388920669233D-09
     1.803646537679D-10 1.000000000000D+00 2.166000000000D+03 0.000000000000D+00
     2.000000000000D+00 0.000000000000D+00-8.381903171539D-09 5.890000000000D+02
     3.095100000000D+05                   
G32 2021 07 14 16 00 00 1.409091055393D-05-2.046363078989D-12 0.000000000000D+00
     2.600000000000D+01-3.015625000000D+01 4.320537261293D-09-1.664006920247D+00
    -1.616775989532D-06 5.039505893365D-03 1.127645373344D-05 5.153695795059D+03
     3.168000000000D+05 1.229345798492D-07-2.237176773952D+00-1.434236764908D-07
     9.574013753816D-01 1.643125000000D+02-2.358515773992D+00-7.778895749766D-09
     7.786038480617D-11 1.000000000000D+00 2.166000000000D+03 0.000000000000D+00
     2.000000000000D+00 0.000000000000D+00 4.656612873077D-10 2.600000000000D+01
     3.095400000000D+05                   
G10 2021 07 14 16 00 00-1.619281247258D-04-7.617018127348D-12 0.000000000000D+00
     6.800000000000D+01-8.875000000000D+01 4.510902318344D-09-3.091341142538D-01
    -4.816800355911D-06 6.721494253725D-03 5.198642611504D-06 5.153676652908D+03
     3.168000000000D+05-2.048909664154D-08 3.003783821916D+00 5.960464477539D-08
     9.701355652403D-01 2.829062500000D+02-2.572335289438D+00-8.302845522223D-09
    -3.885876065368D-10 1.000000000000D+00 2.166000000000D+03 0.000000000000D+00
     2.000000000000D+00 0.000000000000D+00 2.328306436539D-09 6.800000000000D+01
     3.095400000000D+05                   
G24 2021 07 14 16 00 00 1.738904975355D-04 1.443822839065D-11 0.000000000000D+00
     9.200000000000D+01 3.668750000000D+01 5.186644447264D-09 2.054868584153D+00
     1.832842826843D-06 1.123104838189D-02 7.094815373421D-06 5.153720882416D+03
     3.168000000000D+05-2.626329660416D-07-1.253868958275D+00-1.527369022369D-07
     9.345245345608D-01 2.286875000000D+02 7.435406041821D-01-8.406064289090D-09
     3.689439309618D-10 1.000000000000D+00 2.166000000000D+03 0.000000000000D+00
     2.800000000000D+00 0.000000000000D+00 2.793967723846D-09 9.200000000000D+01
     3.095400000000D+05                   
G31 2021 07 14 16 00 00-1.285993494093D-04-2.160049916711D-12 0.000000000000D+00
     8.700000000000D+01 3.665625000000D+01 4.785199347879D-09 5.693222665119D-01
     2.061948180199D-06 1.004767837003D-02 6.400048732758D-06 5.153563550949D+03
     3.168000000000D+05 1.192092895508D-07-1.157495949941D+00 2.458691596985D-07
     9.554369455781D-01 2.520312500000D+02 2.694086923077D-01-8.292845521396D-09
     3.167989204300D-10 1.000000000000D+00 2.166000000000D+03 0.000000000000D+00
     2.800000000000D+00 0.000000000000D+00-1.303851604462D-08 8.700000000000D+01
     3.095400000000D+05                   
G15 2021 07 14 16 00 00-1.355716958642D-04 2.614797267597D-12 0.000000000000D+00
     1.020000000000D+02-6.290625000000D+01 4.878060178015D-09 3.017708897311D+00
    -3.252178430557D-06 1.333286182489D-02 1.059845089912D-05 5.153651800156D+03
     3.168000000000D+05 6.705522537231D-08-2.347762805310D+00-1.154839992523D-07
     9.292306290198D-01 1.563437500000D+02 9.981035409159D-01-7.957116743285D-09
     6.393123530568D-11 1.000000000000D+00 2.166000000000D+03 0.000000000000D+00
     2.000000000000D+00 0.000000000000D+00-1.071020960808D-08 1.020000000000D+02
     3.095400000000D+05                   
G12 2021 07 14 16 00 00-6.855092942715D-05-5.229594535194D-12 0.000000000000D+00
     4.600000000000D+01-1.665625000000D+01 4.425898758598D-09 3.327174830644D-01
    -1.151114702225D-06 8.297431864776D-03 7.458031177521D-06 5.153706798553D+03
     3.168000000000D+05-1.098960638046D-07-6.385993636553D-02 2.235174179077D-08
     9.732754029072D-01 2.448750000000D+02 1.228220908811D+00-8.123909545077D-09
    -3.339424847759D-10 1.000000000000D+00 2.166000000000D+03 0.000000000000D+00
     2.000000000000D+00 0.000000000000D+00-1.257285475731D-08 4.600000000000D+01
     3.095400000000D+05                   
G25 2021 07 14 16 00 00 1.733927056193D-04 6.707523425575D-12 0.000000000000D+00
     9.900000000000D+01-1.409375000000D+01 4.759483918093D-09 1.152831292279D-01
    -8.512288331985D-07 9.829430375248D-03 7.247552275658D-06 5.153599069595D+03
     3.168000000000D+05-5.774199962616D-08-1.379040851958D-01 1.192092895508D-07
     9.606025473519D-01 2.454375000000D+02 9.715997209483D-01-8.326060729758D-09
    -3.075128207630D-10 1.000000000000D+00 2.166000000000D+03 0.000000000000D+00
     2.800000000000D+00 0.000000000000D+00 5.587935447693D-09 9.900000000000D+01
     3.095400000000D+05                   
G23 2021 07 14 16 00 00 8.468562737107D-05-5.229594535194D-12 0.000000000000D+00
     9.100000000000D+01-8.434375000000D+01 4.614120641122D-09 1.303301766241D+00
    -4.436820745468D-06 1.390358549543D-03 4.647299647331D-06 5.153663330078D+03
     3.168000000000D+05 5.587935447693D-09 2.980057703022D+00-7.264316082001D-08
     9.651300842391D-01 2.891875000000D+02 2.615980353145D+00-8.292488473671D-09
    -3.664438474882D-10 1.000000000000D+00 2.166000000000D+03 0.000000000000D+00
     2.000000000000D+00 0.000000000000D+00-8.381903171539D-09 8.590000000000D+02
     3.095400000000D+05                   
